{
  "norad_id": 67200,
  "name": "STARLINK-36270",
  "history": [
    {
      "epoch": "2026-03-28T20:02:47.619168Z",
      "apogee_km": 574.3718145600378,
      "perigee_km": 569.7554912863661,
      "latitude_deg": -1.448243411690357e-05,
      "longitude_deg": -0.801637344142236,
      "height_km": 574.6267399101299,
      "semi_major_axis_km": 6950.200652923201,
      "eccentricity": 0.0003321,
      "inclination_deg": 70.0017,
      "raan_deg": 126.1468,
      "arg_perigee_deg": 266.6423,
      "mean_anomaly_deg": 93.4356,
      "mean_motion_rev_day": 14.9832749
    },
    {
      "epoch": "2026-03-29T04:02:38.700672Z",
      "apogee_km": 574.3843277647302,
      "perigee_km": 559.1985472432843,
      "latitude_deg": 2.2998015200927707e-07,
      "longitude_deg": -121.93641818155196,
      "height_km": 572.4858802270772,
      "semi_major_axis_km": 6944.928437504007,
      "eccentricity": 0.0010933,
      "inclination_deg": 70.0008,
      "raan_deg": 125.3033,
      "arg_perigee_deg": 244.5646,
      "mean_anomaly_deg": 115.4383,
      "mean_motion_rev_day": 15.00033988
    },
    {
      "epoch": "2026-03-30T04:00:01.999584Z",
      "apogee_km": 574.3423951089744,
      "perigee_km": 569.6046437700834,
      "latitude_deg": -19.315955183642743,
      "longitude_deg": -132.07051674780152,
      "height_km": 578.1272871269573,
      "semi_major_axis_km": 6950.110519439529,
      "eccentricity": 0.00034084,
      "inclination_deg": 70.0004,
      "raan_deg": 122.7892,
      "arg_perigee_deg": 267.1056,
      "mean_anomaly_deg": 72.4757,
      "mean_motion_rev_day": 14.98356637
    },
    {
      "epoch": "2026-03-30T12:06:09.749664Z",
      "apogee_km": 574.3483125595494,
      "perigee_km": 569.7903672418424,
      "latitude_deg": 5.142729752507218e-05,
      "longitude_deg": 112.50312962190453,
      "height_km": 574.9670354684133,
      "semi_major_axis_km": 6950.206339900696,
      "eccentricity": 0.0003279,
      "inclination_deg": 70.0005,
      "raan_deg": 121.9388,
      "arg_perigee_deg": 258.0998,
      "mean_anomaly_deg": 101.9794,
      "mean_motion_rev_day": 14.98325651
    },
    {
      "epoch": "2026-03-31T12:08:11.856192Z",
      "apogee_km": 574.2508416149849,
      "perigee_km": 569.894728130218,
      "latitude_deg": 3.984158365549243e-05,
      "longitude_deg": 108.48231155217155,
      "height_km": 575.4685264103592,
      "semi_major_axis_km": 6950.209784872602,
      "eccentricity": 0.00031338,
      "inclination_deg": 70.0002,
      "raan_deg": 119.4138,
      "arg_perigee_deg": 243.6032,
      "mean_anomaly_deg": 116.4806,
      "mean_motion_rev_day": 14.98324537
    },
    {
      "epoch": "2026-04-01T12:10:12.236448Z",
      "apogee_km": 574.3590006596296,
      "perigee_km": 569.7329588682987,
      "latitude_deg": 2.8058525507940814e-05,
      "longitude_deg": 104.46820594043223,
      "height_km": 574.433670892593,
      "semi_major_axis_km": 6950.182979763964,
      "eccentricity": 0.0003328,
      "inclination_deg": 69.9998,
      "raan_deg": 116.8883,
      "arg_perigee_deg": 270.9924,
      "mean_anomaly_deg": 89.0854,
      "mean_motion_rev_day": 14.98333205
    }
  ]
}